{
  "type": "FeatureCollection",
  "features": [
    {
      "type": "Feature",
      "properties": {
        "norad_id": 29816,
        "name": "FENGYUN 1C DEB",
        "group": "fengyun-1c-debris",
        "lat": -79.90862030598144,
        "lon": -94.64747346696042,
        "alt_km": 734.6377909192734,
        "timestamp": "2025-12-08T17:43:05.202495+00:00",
        "meta_object_name": "FENGYUN 1C DEB",
        "meta_object_id": "1999-025DJ",
        "meta_epoch": "2025-12-08T05:24:56.535840",
        "meta_mean_motion": 14.4422817,
        "meta_eccentricity": 0.02378048,
        "meta_inclination": 98.993,
        "meta_ra_of_asc_node": 201.96,
        "meta_arg_of_pericenter": 190.5974,
        "meta_mean_anomaly": 297.6828,
        "meta_ephemeris_type": 0,
        "meta_classification_type": "U",
        "meta_norad_cat_id": 29816,
        "meta_element_set_no": 999,
        "meta_rev_at_epoch": 98122,
        "meta_bstar": 0.0012422175,
        "meta_mean_motion_dot": 5.976e-05,
        "meta_mean_motion_ddot": 0,
        "tle_line1": "1 29816U 99025DJ  25342.22565435  .00005976  00000+0  12422-2 0  9998",
        "tle_line2": "2 29816  98.9930 201.9600 0237804 190.5974 297.6828 14.44228170981220"
      },
      "geometry": {
        "type": "Point",
        "coordinates": [
          -94.64747346696042,
          -79.90862030598144
        ]
      }
    },
    {
      "type": "Feature",
      "properties": {
        "norad_id": 29817,
        "name": "FENGYUN 1C DEB",
        "group": "fengyun-1c-debris",
        "lat": -74.1366086707025,
        "lon": 4.102035253020876,
        "alt_km": 854.2104657144637,
        "timestamp": "2025-12-08T17:43:05.202508+00:00",
        "meta_object_name": "FENGYUN 1C DEB",
        "meta_object_id": "1999-025DK",
        "meta_epoch": "2025-12-07T23:41:58.825824",
        "meta_mean_motion": 14.14242619,
        "meta_eccentricity": 0.00125232,
        "meta_inclination": 98.5572,
        "meta_ra_of_asc_node": 331.3873,
        "meta_arg_of_pericenter": 28.6265,
        "meta_mean_anomaly": 34.7309,
        "meta_ephemeris_type": 0,
        "meta_classification_type": "U",
        "meta_norad_cat_id": 29817,
        "meta_element_set_no": 999,
        "meta_rev_at_epoch": 97328,
        "meta_bstar": 0.00048107703,
        "meta_mean_motion_dot": 8.77e-06,
        "meta_mean_motion_ddot": 0,
        "tle_line1": "1 29817U 99025DK  25341.98748641  .00000877  00000+0  48108-3 0  9999",
        "tle_line2": "2 29817  98.5572 331.3873 0012523  28.6265  34.7309 14.14242619973284"
      },
      "geometry": {
        "type": "Point",
        "coordinates": [
          4.102035253020876,
          -74.1366086707025
        ]
      }
    },
    {
      "type": "Feature",
      "properties": {
        "norad_id": 29818,
        "name": "FENGYUN 1C DEB",
        "group": "fengyun-1c-debris",
        "lat": 19.662319381662964,
        "lon": 43.3525476306101,
        "alt_km": 923.2144548066335,
        "timestamp": "2025-12-08T17:43:05.202518+00:00",
        "meta_object_name": "FENGYUN 1C DEB",
        "meta_object_id": "1999-025DL",
        "meta_epoch": "2025-12-08T05:34:19.938144",
        "meta_mean_motion": 14.04497601,
        "meta_eccentricity": 0.0115469,
        "meta_inclination": 98.7218,
        "meta_ra_of_asc_node": 219.7221,
        "meta_arg_of_pericenter": 38.4427,
        "meta_mean_anomaly": 83.0198,
        "meta_ephemeris_type": 0,
        "meta_classification_type": "U",
        "meta_norad_cat_id": 29818,
        "meta_element_set_no": 999,
        "meta_rev_at_epoch": 96746,
        "meta_bstar": 0.00029748739,
        "meta_mean_motion_dot": 4.62e-06,
        "meta_mean_motion_ddot": 0,
        "tle_line1": "1 29818U 99025DL  25342.23217521  .00000462  00000+0  29749-3 0  9997",
        "tle_line2": "2 29818  98.7218 219.7221 0115469  38.4427  83.0198 14.04497601967460"
      },
      "geometry": {
        "type": "Point",
        "coordinates": [
          43.3525476306101,
          19.662319381662964
        ]
      }
    },
    {
      "type": "Feature",
      "properties": {
        "norad_id": 29819,
        "name": "FENGYUN 1C DEB",
        "group": "fengyun-1c-debris",
        "lat": -56.27244688560104,
        "lon": -20.04665760073705,
        "alt_km": 991.0925453519421,
        "timestamp": "2025-12-08T17:43:05.202529+00:00",
        "meta_object_name": "FENGYUN 1C DEB",
        "meta_object_id": "1999-025DM",
        "meta_epoch": "2025-12-07T21:42:17.726976",
        "meta_mean_motion": 14.02184828,
        "meta_eccentricity": 0.01915288,
        "meta_inclination": 98.7309,
        "meta_ra_of_asc_node": 325.8465,
        "meta_arg_of_pericenter": 80.5538,
        "meta_mean_anomaly": 336.7779,
        "meta_ephemeris_type": 0,
        "meta_classification_type": "U",
        "meta_norad_cat_id": 29819,
        "meta_element_set_no": 999,
        "meta_rev_at_epoch": 96552,
        "meta_bstar": 0.00059541998,
        "meta_mean_motion_dot": 1.03e-05,
        "meta_mean_motion_ddot": 0,
        "tle_line1": "1 29819U 99025DM  25341.90437184  .00001030  00000+0  59542-3 0  9996",
        "tle_line2": "2 29819  98.7309 325.8465 0191528  80.5538 336.7779 14.02184828965522"
      },
      "geometry": {
        "type": "Point",
        "coordinates": [
          -20.04665760073705,
          -56.27244688560104
        ]
      }
    },
    {
      "type": "Feature",
      "properties": {
        "norad_id": 29820,
        "name": "FENGYUN 1C DEB",
        "group": "fengyun-1c-debris",
        "lat": -78.32324260613137,
        "lon": 38.69919034020769,
        "alt_km": 846.2478045083571,
        "timestamp": "2025-12-08T17:43:05.202539+00:00",
        "meta_object_name": "FENGYUN 1C DEB",
        "meta_object_id": "1999-025DN",
        "meta_epoch": "2025-12-08T06:12:08.644032",
        "meta_mean_motion": 14.02593672,
        "meta_eccentricity": 0.00718655,
        "meta_inclination": 98.8316,
        "meta_ra_of_asc_node": 349.4462,
        "meta_arg_of_pericenter": 250.344,
        "meta_mean_anomaly": 125.5004,
        "meta_ephemeris_type": 0,
        "meta_classification_type": "U",
        "meta_norad_cat_id": 29820,
        "meta_element_set_no": 999,
        "meta_rev_at_epoch": 96497,
        "meta_bstar": 0.00085773461,
        "meta_mean_motion_dot": 1.309e-05,
        "meta_mean_motion_ddot": 0,
        "tle_line1": "1 29820U 99025DN  25342.25843338  .00001309  00000+0  85773-3 0  9993",
        "tle_line2": "2 29820  98.8316 349.4462 0071865 250.3440 125.5004 14.02593672964976"
      },
      "geometry": {
        "type": "Point",
        "coordinates": [
          38.69919034020769,
          -78.32324260613137
        ]
      }
    },
    {
      "type": "Feature",
      "properties": {
        "norad_id": 29821,
        "name": "FENGYUN 1C DEB",
        "group": "fengyun-1c-debris",
        "lat": -28.754091856086486,
        "lon": -147.14745836657605,
        "alt_km": 790.8491441886827,
        "timestamp": "2025-12-08T17:43:05.202550+00:00",
        "meta_object_name": "FENGYUN 1C DEB",
        "meta_object_id": "1999-025DP",
        "meta_epoch": "2025-12-08T03:17:05.072064",
        "meta_mean_motion": 14.11036541,
        "meta_eccentricity": 0.03764548,
        "meta_inclination": 98.8735,
        "meta_ra_of_asc_node": 37.1743,
        "meta_arg_of_pericenter": 133.6947,
        "meta_mean_anomaly": 257.9539,
        "meta_ephemeris_type": 0,
        "meta_classification_type": "U",
        "meta_norad_cat_id": 29821,
        "meta_element_set_no": 999,
        "meta_rev_at_epoch": 96446,
        "meta_bstar": 0.00097756375,
        "meta_mean_motion_dot": 3.383e-05,
        "meta_mean_motion_ddot": 0,
        "tle_line1": "1 29821U 99025DP  25342.13686426  .00003383  00000+0  97756-3 0  9992",
        "tle_line2": "2 29821  98.8735  37.1743 0376454 133.6947 257.9539 14.11036541964466"
      },
      "geometry": {
        "type": "Point",
        "coordinates": [
          -147.14745836657605,
          -28.754091856086486
        ]
      }
    },
    {
      "type": "Feature",
      "properties": {
        "norad_id": 29827,
        "name": "FENGYUN 1C DEB",
        "group": "fengyun-1c-debris",
        "lat": 34.75985969198362,
        "lon": -31.991959771097264,
        "alt_km": 808.5287357204907,
        "timestamp": "2025-12-08T17:43:05.202560+00:00",
        "meta_object_name": "FENGYUN 1C DEB",
        "meta_object_id": "1999-025DV",
        "meta_epoch": "2025-12-08T05:50:17.649312",
        "meta_mean_motion": 14.21677161,
        "meta_eccentricity": 0.00251718,
        "meta_inclination": 98.6015,
        "meta_ra_of_asc_node": 333.5551,
        "meta_arg_of_pericenter": 335.7209,
        "meta_mean_anomaly": 47.3625,
        "meta_ephemeris_type": 0,
        "meta_classification_type": "U",
        "meta_norad_cat_id": 29827,
        "meta_element_set_no": 999,
        "meta_rev_at_epoch": 97799,
        "meta_bstar": 0.00062333987,
        "meta_mean_motion_dot": 1.33e-05,
        "meta_mean_motion_ddot": 0,
        "tle_line1": "1 29827U 99025DV  25342.24325983  .00001330  00000+0  62334-3 0  9992",
        "tle_line2": "2 29827  98.6015 333.5551 0025171 335.7209  47.3625 14.21677161977993"
      },
      "geometry": {
        "type": "Point",
        "coordinates": [
          -31.991959771097264,
          34.75985969198362
        ]
      }
    }
  ]
}